KUIPER-00095            
1 65134U 25171C   25246.17455727  .00060503  00000+0  17238-2 0  9998
2 65134  51.8761 295.5141 0004399 233.1096 126.9487 15.35503522  4737
KUIPER-00096            
1 65135U 25171D   25246.17112988  .00032478  00000+0  92705-3 0  9991
2 65135  51.8755 295.4900 0004176 220.0542 140.0137 15.35732459  4739
KUIPER-00097            
1 65136U 25171E   25246.17552960  .00054171  00000+0  15487-2 0  9995
2 65136  51.8760 295.5198 0004373 236.8488 123.2079 15.35444621  4727
KUIPER-00098            
1 65137U 25171F   25246.10012809  .00048799  00000+0  13699-2 0  9994
2 65137  51.8761 295.7696 0005091 201.6660 158.4111 15.36059286  4068
KUIPER-00099            
1 65138U 25171G   25246.23250734  .00028762  00000+0  81637-3 0  9996
2 65138  51.8764 295.1579 0004906 206.8308 153.2425 15.35968477  4731
KUIPER-00100            
1 65139U 25171H   25246.23514603  .00030546  00000+0  87295-3 0  9994
2 65139  51.8753 295.1691 0004434 216.9783 143.0898 15.35724759  4734
KUIPER-00102            
1 65140U 25171J   25246.17453127  .00073976  00000+0  21024-2 0  9993
2 65140  51.8751 295.5112 0004032 229.7859 130.2774 15.35491299  4726
KUIPER-00103            
1 65141U 25171K   25246.17188040  .00016566  00000+0  47983-3 0  9998
2 65141  51.8753 295.4930 0004036 219.7917 140.2773 15.35690471  4727
